OBJECT_NAME,OBJECT_ID,EPOCH,MEAN_MOTION,ECCENTRICITY,INCLINATION,RA_OF_ASC_NODE,ARG_OF_PERICENTER,MEAN_ANOMALY,EPHEMERIS_TYPE,CLASSIFICATION_TYPE,NORAD_CAT_ID,ELEMENT_SET_NO,REV_AT_EPOCH,BSTAR,MEAN_MOTION_DOT,MEAN_MOTION_DDOT
STARLINK-30153,2023-113R,2026-06-27T02:37:21.619200,15.27576362,.00014716,43.0040,117.7860,272.1642,87.9041,0,U,57510,999,16030,-.44232198E-4,-.1479E-4,0
STARLINK-30147,2023-113S,2026-06-27T02:52:12.981216,15.27523403,.00014422,43.0005,117.8502,289.9123,70.1574,0,U,57511,999,16041,-.17251378E-3,-.4998E-4,0
STARLINK-30157,2023-113T,2026-06-27T01:31:46.201152,15.27575460,.00019247,43.0029,92.5889,269.5172,90.5459,0,U,57512,999,16070,-.30986729E-4,-.1115E-4,0
STARLINK-30168,2023-113U,2026-06-27T02:46:36.410016,15.27581618,.00005535,42.9997,117.7938,273.6782,86.4007,0,U,57513,999,16025,.36911876E-4,.754E-5,0
STARLINK-30231,2023-113V,2026-06-27T03:08:48.770592,15.27571321,.00007982,43.0027,117.9274,256.2845,103.7918,0,U,57514,999,16041,-.137963E-4,-.641E-5,0
STARLINK-30081,2023-113W,2026-06-27T02:41:03.710400,15.27575818,.00013502,43.0024,117.8003,270.0500,90.0197,0,U,57515,999,16041,.16044427E-4,.179E-5,0
STARLINK-30149,2023-113X,2026-06-27T03:01:24.598560,15.27575352,.0001007,43.0024,117.8980,262.0114,98.0623,0,U,57516,999,16031,.4004694E-5,-.152E-5,0
STARLINK-30259,2023-115A,2026-06-27T02:23:28.217760,15.27573251,.00009305,43.0044,103.7541,248.1037,111.9716,0,U,57521,999,16030,.9006947E-5,-.14E-6,0
STARLINK-30256,2023-115B,2026-06-26T12:47:30.702336,15.27573548,.0001807,43.0043,107.2322,265.3125,94.7520,0,U,57522,999,15899,-.2198E-4,-.867E-5,0
STARLINK-30261,2023-115C,2026-06-26T23:35:30.662592,15.27568452,.00016608,43.0045,104.5908,270.8475,89.2186,0,U,57523,999,15906,.2733853E-5,-.187E-5,0
STARLINK-30260,2023-115D,2026-06-27T02:17:55.222656,15.27574316,.00013233,43.0035,103.7396,263.0375,97.0326,0,U,57524,999,15908,.15361019E-4,.161E-5,0
STARLINK-30253,2023-115E,2026-06-26T20:17:57.194304,15.27564108,.00009307,43.0017,105.2876,274.2019,85.8727,0,U,57525,999,15904,-.55792595E-4,-.1796E-4,0
STARLINK-30257,2023-115F,2026-06-27T02:29:00.583008,15.27578487,.00008823,43.0025,103.8060,249.5464,110.5293,0,U,57526,999,15908,-.28741524E-4,-.1053E-4,0
STARLINK-30250,2023-115G,2026-06-26T20:23:29.931936,15.27562942,.00010769,43.0028,105.3099,272.2705,87.8023,0,U,57527,999,15994,-.4179975E-5,-.377E-5,0
STARLINK-30269,2023-115H,2026-06-27T01:31:52.398624,15.27574651,.00018305,43.0062,104.3640,283.1451,76.9196,0,U,57528,999,15907,.24172975E-4,.403E-5,0
STARLINK-30266,2023-115J,2026-06-27T01:57:31.877280,15.27593568,.00014852,42.9992,103.6156,265.5417,94.5265,0,U,57529,999,15908,.65577261E-4,.1544E-4,0
STARLINK-30270,2023-115K,2026-06-26T19:29:49.220736,15.27585163,.0001,43.0020,105.0499,251.5029,108.5715,0,U,57530,999,15904,.46655256E-4,.1022E-4,0
STARLINK-30268,2023-115L,2026-06-27T01:26:19.119264,15.27575986,.00015571,43.0049,104.3244,272.7392,87.3282,0,U,57531,999,15907,-.45499039E-4,-.1514E-4,0
STARLINK-30251,2023-115M,2026-06-26T19:35:23.047872,15.27573368,.00003665,42.9995,105.0708,237.2057,122.8759,0,U,57532,999,15904,-.3070366E-4,-.1106E-4,0
STARLINK-30254,2023-115N,2026-06-26T18:40:11.250336,15.27581831,.00011076,43.0005,207.0876,275.2969,84.7757,0,U,57533,999,16204,.2691973E-5,-.188E-5,0
STARLINK-30264,2023-115P,2026-06-27T01:27:47.326752,15.27598769,.0002115,43.0059,311.2289,283.0928,76.9688,0,U,57534,999,16208,-.22179371E-3,-.6364E-4,0
STARLINK-30166,2023-119A,2026-06-27T07:24:44.366112,15.27576242,.00012645,42.9991,182.3015,270.7056,89.3650,0,U,57602,999,15979,.8653788E-5,-.24E-6,0
STARLINK-30223,2023-119B,2026-06-27T06:48:18.650880,15.11168547,.00054455,42.9975,199.9940,64.3120,295.8288,0,U,57603,999,15963,.1167501E-2,.19772E-3,0
STARLINK-30218,2023-119C,2026-06-26T17:48:47.280096,15.27573759,.00018275,43.0036,185.7930,282.4393,77.6254,0,U,57604,999,15976,-.10176246E-4,-.542E-5,0
STARLINK-30138,2023-119D,2026-06-26T17:54:20.707200,15.27581447,.00016323,43.0033,185.8179,257.7204,102.3465,0,U,57605,999,15976,.49536029E-4,.1101E-4,0
STARLINK-30255,2023-119E,2026-06-27T07:32:08.830176,15.27570775,.00009771,43.0006,182.3393,271.2490,88.8249,0,U,57606,999,15985,-.15593178E-4,-.691E-5,0
STARLINK-30252,2023-119F,2026-06-26T16:44:49.529472,15.27573700,.00010121,43.0028,171.0218,294.0423,66.0323,0,U,57607,999,15993,-.36623999E-4,-.1269E-4,0
STARLINK-30258,2023-119G,2026-06-27T06:59:02.729184,15.27575642,.0001272,43.0006,183.0172,273.5274,86.5432,0,U,57608,999,15984,.6113335E-5,-.94E-6,0
STARLINK-30174,2023-119H,2026-06-27T07:15:29.562336,15.27570237,.000113,42.9983,182.2474,273.0682,87.0041,0,U,57609,999,15985,-.17636461E-4,-.747E-5,0
STARLINK-30248,2023-119J,2026-06-27T07:06:14.268672,15.27574700,.00011127,43.0007,182.2014,269.0599,91.0125,0,U,57610,999,15985,.960478E-6,-.236E-5,0
