STARLINK-30153          
1 57510U 23113R   26178.10927800 -.00001479  00000+0 -44232-4 0  9990
2 57510  43.0040 117.7860 0001471 272.1642  87.9041 15.27576362160301
STARLINK-30147          
1 57511U 23113S   26178.11959469 -.00004998  00000+0 -17251-3 0  9997
2 57511  43.0005 117.8502 0001442 289.9123  70.1574 15.27523403160410
STARLINK-30157          
1 57512U 23113T   26178.06372918 -.00001115  00000+0 -30987-4 0  9990
2 57512  43.0029  92.5889 0001924 269.5172  90.5459 15.27575460160707
STARLINK-30168          
1 57513U 23113U   26178.11569919  .00000754  00000+0  36912-4 0  9996
2 57513  42.9997 117.7938 0000553 273.6782  86.4007 15.27581618160250
STARLINK-30231          
1 57514U 23113V   26178.13112003 -.00000641  00000+0 -13796-4 0  9999
2 57514  43.0027 117.9274 0000798 256.2845 103.7918 15.27571321160412
STARLINK-30081          
1 57515U 23113W   26178.11184850  .00000179  00000+0  16044-4 0  9990
2 57515  43.0024 117.8003 0001350 270.0500  90.0197 15.27575818160418
STARLINK-30149          
1 57516U 23113X   26178.12597915 -.00000152  00000+0  40047-5 0  9995
2 57516  43.0024 117.8980 0001007 262.0114  98.0623 15.27575352160318
STARLINK-30259          
1 57521U 23115A   26178.09963215 -.00000014  00000+0  90069-5 0  9995
2 57521  43.0044 103.7541 0000930 248.1037 111.9716 15.27573251160309
STARLINK-30256          
1 57522U 23115B   26177.53299424 -.00000867  00000+0 -21980-4 0  9990
2 57522  43.0043 107.2322 0001807 265.3125  94.7520 15.27573548158990
STARLINK-30261          
1 57523U 23115C   26177.98299378 -.00000187  00000+0  27339-5 0  9997
2 57523  43.0045 104.5908 0001660 270.8475  89.2186 15.27568452159063
STARLINK-30260          
1 57524U 23115D   26178.09577804  .00000161  00000+0  15361-4 0  9996
2 57524  43.0035 103.7396 0001323 263.0375  97.0326 15.27574316159085
STARLINK-30253          
1 57525U 23115E   26177.84580086 -.00001796  00000+0 -55793-4 0  9995
2 57525  43.0017 105.2876 0000930 274.2019  85.8727 15.27564108159042
STARLINK-30257          
1 57526U 23115F   26178.10347897 -.00001053  00000+0 -28742-4 0  9997
2 57526  43.0025 103.8060 0000882 249.5464 110.5293 15.27578487159089
STARLINK-30250          
1 57527U 23115G   26177.84965199 -.00000377  00000+0 -41800-5 0  9998
2 57527  43.0028 105.3099 0001076 272.2705  87.8023 15.27562942159940
STARLINK-30269          
1 57528U 23115H   26178.06380091  .00000403  00000+0  24173-4 0  9997
2 57528  43.0062 104.3640 0001830 283.1451  76.9196 15.27574651159071
STARLINK-30266          
1 57529U 23115J   26178.08161895  .00001544  00000+0  65577-4 0  9999
2 57529  42.9992 103.6156 0001485 265.5417  94.5265 15.27593568159080
STARLINK-30270          
1 57530U 23115K   26177.81237524  .00001022  00000+0  46655-4 0  9991
2 57530  43.0020 105.0499 0001000 251.5029 108.5715 15.27585163159043
STARLINK-30268          
1 57531U 23115L   26178.05994351 -.00001514  00000+0 -45499-4 0  9990
2 57531  43.0049 104.3244 0001557 272.7392  87.3282 15.27575986159078
STARLINK-30251          
1 57532U 23115M   26177.81623898 -.00001106  00000+0 -30704-4 0  9999
2 57532  42.9995 105.0708 0000366 237.2057 122.8759 15.27573368159044
STARLINK-30254          
1 57533U 23115N   26177.77790799 -.00000188  00000+0  26920-5 0  9994
2 57533  43.0005 207.0876 0001107 275.2969  84.7757 15.27581831162048
STARLINK-30264          
1 57534U 23115P   26178.06096443 -.00006364  00000+0 -22179-3 0  9996
2 57534  43.0059 311.2289 0002115 283.0928  76.9688 15.27598769162084
STARLINK-30166          
1 57602U 23119A   26178.30884683 -.00000024  00000+0  86538-5 0  9991
2 57602  42.9991 182.3015 0001264 270.7056  89.3650 15.27576242159799
STARLINK-30223          
1 57603U 23119B   26178.28354920  .00019772  00000+0  11675-2 0  9991
2 57603  42.9975 199.9940 0005445  64.3120 295.8288 15.11168547159639
STARLINK-30218          
1 57604U 23119C   26177.74221389 -.00000542  00000+0 -10176-4 0  9998
2 57604  43.0036 185.7930 0001827 282.4393  77.6254 15.27573759159762
STARLINK-30138          
1 57605U 23119D   26177.74607300  .00001101  00000+0  49536-4 0  9992
2 57605  43.0033 185.8179 0001632 257.7204 102.3465 15.27581447159769
STARLINK-30255          
1 57606U 23119E   26178.31399109 -.00000691  00000+0 -15593-4 0  9993
2 57606  43.0006 182.3393 0000977 271.2490  88.8249 15.27570775159859
STARLINK-30252          
1 57607U 23119F   26177.69779548 -.00001269  00000+0 -36624-4 0  9993
2 57607  43.0028 171.0218 0001012 294.0423  66.0323 15.27573700159936
STARLINK-30258          
1 57608U 23119G   26178.29100381 -.00000094  00000+0  61133-5 0  9992
2 57608  43.0006 183.0172 0001272 273.5274  86.5432 15.27575642159844
STARLINK-30174          
1 57609U 23119H   26178.30242549 -.00000747  00000+0 -17636-4 0  9992
2 57609  42.9983 182.2474 0001130 273.0682  87.0041 15.27570237159852
STARLINK-30248          
1 57610U 23119J   26178.29599848 -.00000236  00000+0  96048-6 0  9997
2 57610  43.0007 182.2014 0001112 269.0599  91.0125 15.27574700159852
